RISAT-2BR2              
1 46905U 20081A   26068.52426450  .00004901  00000+0  37609-3 0  9996
2 46905  36.8980  95.9121 0010905  52.9142 307.2595 15.01602463292489
STARLINK-34654          
1 64858U 25152S   26068.83382394  .00002859  00000+0  20227-3 0  9997
2 64858  97.6015 285.7132 0001812  90.5043 269.6392 15.05650765 35445
